{
    "links": {
        "self": "http://www.neowsapp.com/rest/v1/neo/3735390?api_key=iIulBulltgU6a56xZRHN4H3l9WmuAYTsLGpBGhQ2"
    },
    "id": "3735390",
    "neo_reference_id": "3735390",
    "name": "(2015 VF150)",
    "designation": "2015 VF150",
    "nasa_jpl_url": "http://ssd.jpl.nasa.gov/sbdb.cgi?sstr=3735390",
    "absolute_magnitude_h": 25.5,
    "estimated_diameter": {
        "kilometers": {
            "estimated_diameter_min": 0.0211132445,
            "estimated_diameter_max": 0.0472106499
        },
        "meters": {
            "estimated_diameter_min": 21.113244479,
            "estimated_diameter_max": 47.2106498806
        },
        "miles": {
            "estimated_diameter_min": 0.0131191578,
            "estimated_diameter_max": 0.0293353287
        },
        "feet": {
            "estimated_diameter_min": 69.2691770164,
            "estimated_diameter_max": 154.8905885541
        }
    },
    "is_potentially_hazardous_asteroid": false,
    "close_approach_data": [
        {
            "close_approach_date": "2015-11-23",
            "close_approach_date_full": "2015-Nov-23 00:45",
            "epoch_date_close_approach": 1448239500000,
            "relative_velocity": {
                "kilometers_per_second": "9.6837121978",
                "kilometers_per_hour": "34861.3639122262",
                "miles_per_hour": "21661.4958153497"
            },
            "miss_distance": {
                "astronomical": "0.1300801303",
                "lunar": "50.6011706867",
                "kilometers": "19459710.422202461",
                "miles": "12091703.3566215218"
            },
            "orbiting_body": "Earth"
        },
        {
            "close_approach_date": "2016-05-03",
            "close_approach_date_full": "2016-May-03 19:14",
            "epoch_date_close_approach": 1462302840000,
            "relative_velocity": {
                "kilometers_per_second": "9.6938640305",
                "kilometers_per_hour": "34897.9105098524",
                "miles_per_hour": "21684.204449858"
            },
            "miss_distance": {
                "astronomical": "0.1164155112",
                "lunar": "45.2856338568",
                "kilometers": "17415512.510481144",
                "miles": "10821497.6744980272"
            },
            "orbiting_body": "Earth"
        }
    ],
    "orbital_data": {
        "orbit_id": "3",
        "orbit_determination_date": "2017-04-06 08:30:35",
        "first_observation_date": "2015-11-14",
        "last_observation_date": "2015-11-19",
        "data_arc_in_days": 5,
        "observations_used": 19,
        "orbit_uncertainty": "8",
        "minimum_orbit_intersection": ".110812",
        "jupiter_tisserand_invariant": "5.338",
        "epoch_osculation": "2457342.5",
        "eccentricity": ".1789868533069516",
        "semi_major_axis": "1.169311361762625",
        "inclination": "17.81076371702175",
        "ascending_node_longitude": "232.0711380608184",
        "orbital_period": "461.8422722795495",
        "perihelion_distance": ".960020000584666",
        "perihelion_argument": "267.9072289592073",
        "aphelion_distance": "1.378602722940584",
        "perihelion_time": "2457429.382929843843",
        "mean_anomaly": "292.2758945615718",
        "mean_motion": ".7794868976006051",
        "equinox": "J2000",
        "orbit_class": {
            "orbit_class_type": "APO",
            "orbit_class_description": "Near-Earth asteroid orbits which cross the Earth’s orbit similar to that of 1862 Apollo",
            "orbit_class_range": "a (semi-major axis) > 1.0 AU; q (perihelion) < 1.017 AU"
        }
    },
    "is_sentry_object": false
}